{"type": "FeatureCollection", "features": [ {"type": "Feature", "properties": {"norad_id": 38779, "name": "GSAT-10 (GAGAN/PRN 128)", "group": "gnss", "lat": 0.007462199493354154, "lon": -67.5976719830486, "alt_km": 35795.39086193559, "timestamp": "2025-12-25T07:41:09.965945+00:00", "meta": {"OBJECT_NAME": "GSAT-10 (GAGAN/PRN 128)", "OBJECT_ID": "2012-051B", "EPOCH": "2025-12-24T22:22:53.622048", "MEAN_MOTION": 1.00271102, "ECCENTRICITY": 0.00021812, "INCLINATION": 0.0626, "RA_OF_ASC_NODE": 262.1776, "ARG_OF_PERICENTER": 219.7233, "MEAN_ANOMALY": 30.5548, "EPHEMERIS_TYPE": 0, "CLASSIFICATION_TYPE": "U", "NORAD_CAT_ID": 38779, "ELEMENT_SET_NO": 999, "REV_AT_EPOCH": 4835, "BSTAR": 0, "MEAN_MOTION_DOT": -1.44e-06, "MEAN_MOTION_DDOT": 0}, "tle": {"line1": "1 38779U 12051B   25358.93256507 -.00000144  00000+0  00000+0 0  9991", "line2": "2 38779   0.0626 262.1776 0002181 219.7233  30.5548  1.00271102 48359"}}, "geometry": {"type": "Point", "coordinates": [-67.5976719830486, 0.007462199493354154]}}, {"type": "Feature", "properties": {"norad_id": 38833, "name": "GPS BIIF-3  (PRN 24)", "group": "gnss", "lat": 2.836801182524933, "lon": 152.810700754325, "alt_km": 19946.71155641983, "timestamp": "2025-12-25T07:41:09.965957+00:00", "meta": {"OBJECT_NAME": "GPS BIIF-3  (PRN 24)", "OBJECT_ID": "2012-053A", "EPOCH": "2025-12-24T07:38:21.199488", "MEAN_MOTION": 2.00565058, "ECCENTRICITY": 0.01760755, "INCLINATION": 53.5598, "RA_OF_ASC_NODE": 150.7645, "ARG_OF_PERICENTER": 64.1634, "MEAN_ANOMALY": 297.6191, "EPHEMERIS_TYPE": 0, "CLASSIFICATION_TYPE": "U", "NORAD_CAT_ID": 38833, "ELEMENT_SET_NO": 999, "REV_AT_EPOCH": 9593, "BSTAR": 0, "MEAN_MOTION_DOT": 8.3e-07, "MEAN_MOTION_DDOT": 0}, "tle": {"line1": "1 38833U 12053A   25358.31830092  .00000083  00000+0  00000+0 0  9994", "line2": "2 38833  53.5598 150.7645 0176075  64.1634 297.6191  2.00565058 95932"}}, "geometry": {"type": "Point", "coordinates": [152.810700754325, 2.836801182524933]}}, {"type": "Feature", "properties": {"norad_id": 38857, "name": "GSAT0103 (GALILEO-FM3)", "group": "gnss", "lat": 30.097910459173374, "lon": 129.5934266618744, "alt_km": 23223.992938616153, "timestamp": "2025-12-25T07:41:09.965968+00:00", "meta": {"OBJECT_NAME": "GSAT0103 (GALILEO-FM3)", "OBJECT_ID": "2012-055A", "EPOCH": "2025-12-22T21:54:43.252704", "MEAN_MOTION": 1.70473351, "ECCENTRICITY": 0.0002995, "INCLINATION": 55.698, "RA_OF_ASC_NODE": 106.3873, "ARG_OF_PERICENTER": 269.858, "MEAN_ANOMALY": 90.0891, "EPHEMERIS_TYPE": 0, "CLASSIFICATION_TYPE": "U", "NORAD_CAT_ID": 38857, "ELEMENT_SET_NO": 999, "REV_AT_EPOCH": 8200, "BSTAR": 0, "MEAN_MOTION_DOT": 1e-07, "MEAN_MOTION_DDOT": 0}, "tle": {"line1": "1 38857U 12055A   25356.91300061  .00000010  00000+0  00000+0 0  9994", "line2": "2 38857  55.6980 106.3873 0002995 269.8580  90.0891  1.70473351 82005"}}, "geometry": {"type": "Point", "coordinates": [129.5934266618744, 30.097910459173374]}}, {"type": "Feature", "properties": {"norad_id": 38953, "name": "BEIDOU-2 G6 (C02)", "group": "gnss", "lat": -2.4591085842001195, "lon": -66.8495913734278, "alt_km": 35776.23787842578, "timestamp": "2025-12-25T07:41:09.965983+00:00", "meta": {"OBJECT_NAME": "BEIDOU-2 G6 (C02)", "OBJECT_ID": "2012-059A", "EPOCH": "2025-12-24T22:31:57.186048", "MEAN_MOTION": 1.00276322, "ECCENTRICITY": 0.0007997, "INCLINATION": 3.9783, "RA_OF_ASC_NODE": 75.3931, "ARG_OF_PERICENTER": 292.4419, "MEAN_ANOMALY": 147.7879, "EPHEMERIS_TYPE": 0, "CLASSIFICATION_TYPE": "U", "NORAD_CAT_ID": 38953, "ELEMENT_SET_NO": 999, "REV_AT_EPOCH": 4816, "BSTAR": 0, "MEAN_MOTION_DOT": -1.56e-06, "MEAN_MOTION_DDOT": 0}, "tle": {"line1": "1 38953U 12059A   25358.93885632 -.00000156  00000+0  00000+0 0  9993", "line2": "2 38953   3.9783  75.3931 0007997 292.4419 147.7879  1.00276322 48166"}}, "geometry": {"type": "Point", "coordinates": [-66.8495913734278, -2.4591085842001195]}}, {"type": "Feature", "properties": {"norad_id": 38977, "name": "LUCH 5B (SDCM/PRN 125)", "group": "gnss", "lat": 6.292428097779797, "lon": -166.57913588032145, "alt_km": 35769.12039829301, "timestamp": "2025-12-25T07:41:09.965995+00:00", "meta": {"OBJECT_NAME": "LUCH 5B (SDCM/PRN 125)", "OBJECT_ID": "2012-061A", "EPOCH": "2025-12-24T21:34:59.823264", "MEAN_MOTION": 1.00271816, "ECCENTRICITY": 0.00066262, "INCLINATION": 10.1056, "RA_OF_ASC_NODE": 51.5883, "ARG_OF_PERICENTER": 195.9213, "MEAN_ANOMALY": 153.5801, "EPHEMERIS_TYPE": 0, "CLASSIFICATION_TYPE": "U", "NORAD_CAT_ID": 38977, "ELEMENT_SET_NO": 999, "REV_AT_EPOCH": 4785, "BSTAR": 0, "MEAN_MOTION_DOT": -1.21e-06, "MEAN_MOTION_DDOT": 0}, "tle": {"line1": "1 38977U 12061A   25358.89930351 -.00000121  00000+0  00000+0 0  9998", "line2": "2 38977  10.1056  51.5883 0006626 195.9213 153.5801  1.00271816 47852"}}, "geometry": {"type": "Point", "coordinates": [-166.57913588032145, 6.292428097779797]}}, {"type": "Feature", "properties": {"norad_id": 39155, "name": "COSMOS 2485 (747)", "group": "gnss", "lat": 24.81672046155019, "lon": 91.71475573409398, "alt_km": 19185.829263940643, "timestamp": "2025-12-25T07:41:09.966007+00:00", "meta": {"OBJECT_NAME": "COSMOS 2485 (747)", "OBJECT_ID": "2013-019A", "EPOCH": "2025-12-23T21:02:08.431872", "MEAN_MOTION": 2.13103241, "ECCENTRICITY": 0.00249991, "INCLINATION": 65.319, "RA_OF_ASC_NODE": 79.4929, "ARG_OF_PERICENTER": 230.4814, "MEAN_ANOMALY": 129.3448, "EPHEMERIS_TYPE": 0, "CLASSIFICATION_TYPE": "U", "NORAD_CAT_ID": 39155, "ELEMENT_SET_NO": 999, "REV_AT_EPOCH": 9854, "BSTAR": 0, "MEAN_MOTION_DOT": 2e-08, "MEAN_MOTION_DDOT": 0}, "tle": {"line1": "1 39155U 13019A   25357.87648648  .00000002  00000+0  00000+0 0  9990", "line2": "2 39155  65.3190  79.4929 0024999 230.4814 129.3448  2.13103241 98548"}}, "geometry": {"type": "Point", "coordinates": [91.71475573409398, 24.81672046155019]}}, {"type": "Feature", "properties": {"norad_id": 39166, "name": "GPS BIIF-4  (PRN 27)", "group": "gnss", "lat": 52.30684468252257, "lon": 29.462796108873917, "alt_km": 19963.23638290143, "timestamp": "2025-12-25T07:41:09.966020+00:00", "meta": {"OBJECT_NAME": "GPS BIIF-4  (PRN 27)", "OBJECT_ID": "2013-023A", "EPOCH": "2025-12-24T04:22:45.402816", "MEAN_MOTION": 2.00564584, "ECCENTRICITY": 0.01386043, "INCLINATION": 54.6422, "RA_OF_ASC_NODE": 276.1031, "ARG_OF_PERICENTER": 48.7593, "MEAN_ANOMALY": 312.474, "EPHEMERIS_TYPE": 0, "CLASSIFICATION_TYPE": "U", "NORAD_CAT_ID": 39166, "ELEMENT_SET_NO": 999, "REV_AT_EPOCH": 9237, "BSTAR": 0, "MEAN_MOTION_DOT": -1.6e-07, "MEAN_MOTION_DDOT": 0}, "tle": {"line1": "1 39166U 13023A   25358.18246994 -.00000016  00000+0  00000+0 0  9996", "line2": "2 39166  54.6422 276.1031 0138604  48.7593 312.4740  2.00564584 92374"}}, "geometry": {"type": "Point", "coordinates": [29.462796108873917, 52.30684468252257]}}, {"type": "Feature", "properties": {"norad_id": 39199, "name": "IRNSS-1A", "group": "gnss", "lat": -10.153884058062776, "lon": -98.9850176533764, "alt_km": 35689.812474215076, "timestamp": "2025-12-25T07:41:09.966032+00:00", "meta": {"OBJECT_NAME": "IRNSS-1A", "OBJECT_ID": "2013-034A", "EPOCH": "2025-12-24T18:29:47.559840", "MEAN_MOTION": 1.00273605, "ECCENTRICITY": 0.00238143, "INCLINATION": 35.3368, "RA_OF_ASC_NODE": 66.3779, "ARG_OF_PERICENTER": 212.7296, "MEAN_ANOMALY": 146.6998, "EPHEMERIS_TYPE": 0, "CLASSIFICATION_TYPE": "U", "NORAD_CAT_ID": 39199, "ELEMENT_SET_NO": 999, "REV_AT_EPOCH": 4561, "BSTAR": 0, "MEAN_MOTION_DOT": 7.9e-07, "MEAN_MOTION_DDOT": 0}, "tle": {"line1": "1 39199U 13034A   25358.77068935  .00000079  00000+0  00000+0 0  9994", "line2": "2 39199  35.3368  66.3779 0023814 212.7296 146.6998  1.00273605 45619"}}, "geometry": {"type": "Point", "coordinates": [-98.9850176533764, -10.153884058062776]}}, {"type": "Feature", "properties": {"norad_id": 39533, "name": "GPS BIIF-5  (PRN 30)", "group": "gnss", "lat": 51.253093950543004, "lon": -90.41231122446254, "alt_km": 20287.1298860857, "timestamp": "2025-12-25T07:41:09.966043+00:00", "meta": {"OBJECT_NAME": "GPS BIIF-5  (PRN 30)", "OBJECT_ID": "2014-008A", "EPOCH": "2025-12-23T16:16:25.020768", "MEAN_MOTION": 2.00548852, "ECCENTRICITY": 0.00795532, "INCLINATION": 53.5993, "RA_OF_ASC_NODE": 156.4877, "ARG_OF_PERICENTER": 225.9161, "MEAN_ANOMALY": 133.4108, "EPHEMERIS_TYPE": 0, "CLASSIFICATION_TYPE": "U", "NORAD_CAT_ID": 39533, "ELEMENT_SET_NO": 999, "REV_AT_EPOCH": 8616, "BSTAR": 0, "MEAN_MOTION_DOT": 8.2e-07, "MEAN_MOTION_DDOT": 0}, "tle": {"line1": "1 39533U 14008A   25357.67806737  .00000082  00000+0  00000+0 0  9990", "line2": "2 39533  53.5993 156.4877 0079553 225.9161 133.4108  2.00548852 86167"}}, "geometry": {"type": "Point", "coordinates": [-90.41231122446254, 51.253093950543004]}}, {"type": "Feature", "properties": {"norad_id": 39617, "name": "ASTRA 5B (EGNOS/PRN 123)", "group": "gnss", "lat": -0.041764213975135904, "lon": -127.18005271926891, "alt_km": 35772.966421833145, "timestamp": "2025-12-25T07:41:09.966057+00:00", "meta": {"OBJECT_NAME": "ASTRA 5B (EGNOS/PRN 123)", "OBJECT_ID": "2014-011B", "EPOCH": "2025-12-24T21:46:13.746720", "MEAN_MOTION": 1.00271136, "ECCENTRICITY": 0.00046073, "INCLINATION": 0.0444, "RA_OF_ASC_NODE": 13.6352, "ARG_OF_PERICENTER": 266.4349, "MEAN_ANOMALY": 163.6547, "EPHEMERIS_TYPE": 0, "CLASSIFICATION_TYPE": "U", "NORAD_CAT_ID": 39617, "ELEMENT_SET_NO": 999, "REV_AT_EPOCH": 4292, "BSTAR": 0, "MEAN_MOTION_DOT": 1.58e-06, "MEAN_MOTION_DDOT": 0}, "tle": {"line1": "1 39617U 14011B   25358.90710355  .00000158  00000+0  00000+0 0  9998", "line2": "2 39617   0.0444  13.6352 0004607 266.4349 163.6547  1.00271136 42921"}}, "geometry": {"type": "Point", "coordinates": [-127.18005271926891, -0.041764213975135904]}}]}